KUIPER-00095            
1 65134U 25171C   25345.16668980 -.00023716  00000+0 -20051-2 0  9998
2 65134  51.8892 182.6015 0005245 180.4788 149.4363 14.97343078  5606
KUIPER-00096            
1 65135U 25171D   25345.01061316  .00004250  00000+0  58539-3 0  9996
2 65135  51.8983 190.2245 0011163 209.5780 150.4552 14.79965588 19769
KUIPER-00097            
1 65136U 25171E   25345.16668980 -.00013448  00000+0 -17488-2 0  9991
2 65136  51.8990 192.1486 0010218 212.3659 274.1126 14.79641439  5462
KUIPER-00098            
1 65137U 25171F   25344.87024260  .00008630  00000+0  11582-2 0  9990
2 65137  51.8989 195.8472 0008144 191.9501 168.1269 14.79971276 19010
KUIPER-00099            
1 65138U 25171G   25345.16668980 -.00062551  00000+0 -68129-2 0  9990
2 65138  51.8976 184.6837 0006129 237.5653 279.8533 14.87811341  4477
KUIPER-00100            
1 65139U 25171H   25345.16668980 -.01890305  00000+0 -17060+0 0  9993
2 65139  51.8916 182.5856 0001901 260.2230 192.1592 14.98439663  3541
KUIPER-00102            
1 65140U 25171J   25345.16668980 -.00030637  00000+0 -35832-2 0  9998
2 65140  51.8983 184.6142 0012283 207.7606 198.6294 14.84513829  5630
KUIPER-00103            
1 65141U 25171K   25345.03100226  .00011901  00000+0  15854-2 0  9992
2 65141  51.8965 202.6285 0006289 189.3320 170.7527 14.79976661 19587
